{
  "type": "FeatureCollection",
  "features": [
    {
      "type": "Feature",
      "properties": {
        "norad_id": 34481,
        "name": "COSMOS 2251 DEB",
        "group": "cosmos-2251-debris",
        "lat": 34.73311373737185,
        "lon": -145.49806506212227,
        "alt_km": 767.9163473663393,
        "timestamp": "2025-12-16T19:34:24.663050+00:00",
        "meta_object_name": "COSMOS 2251 DEB",
        "meta_object_id": "1993-036UA",
        "meta_epoch": "2025-12-15T11:07:54.628608",
        "meta_mean_motion": 14.32561963,
        "meta_eccentricity": 0.00706457,
        "meta_inclination": 73.9808,
        "meta_ra_of_asc_node": 48.466,
        "meta_arg_of_pericenter": 222.3165,
        "meta_mean_anomaly": 153.5912,
        "meta_ephemeris_type": 0,
        "meta_classification_type": "U",
        "meta_norad_cat_id": 34481,
        "meta_element_set_no": 999,
        "meta_rev_at_epoch": 87488,
        "meta_bstar": 0.00054891732,
        "meta_mean_motion_dot": 1.505e-05,
        "meta_mean_motion_ddot": 0,
        "tle_line1": "1 34481U 93036UA  25349.46382672  .00001505  00000+0  54892-3 0  9993",
        "tle_line2": "2 34481  73.9808  48.4660 0070645 222.3165 153.5912 14.32561963874889"
      },
      "geometry": {
        "type": "Point",
        "coordinates": [
          -145.49806506212227,
          34.73311373737185
        ]
      }
    },
    {
      "type": "Feature",
      "properties": {
        "norad_id": 34482,
        "name": "COSMOS 2251 DEB",
        "group": "cosmos-2251-debris",
        "lat": 45.5384088351242,
        "lon": 18.742335381973785,
        "alt_km": 684.2334477299801,
        "timestamp": "2025-12-16T19:34:24.663060+00:00",
        "meta_object_name": "COSMOS 2251 DEB",
        "meta_object_id": "1993-036UB",
        "meta_epoch": "2025-12-15T21:46:39.273600",
        "meta_mean_motion": 14.69252234,
        "meta_eccentricity": 0.00448046,
        "meta_inclination": 74.0368,
        "meta_ra_of_asc_node": 217.4583,
        "meta_arg_of_pericenter": 276.8292,
        "meta_mean_anomaly": 93.8857,
        "meta_ephemeris_type": 0,
        "meta_classification_type": "U",
        "meta_norad_cat_id": 34482,
        "meta_element_set_no": 999,
        "meta_rev_at_epoch": 88234,
        "meta_bstar": 0.0011393637,
        "meta_mean_motion_dot": 6.795e-05,
        "meta_mean_motion_ddot": 0,
        "tle_line1": "1 34482U 93036UB  25349.90739900  .00006795  00000+0  11394-2 0  9998",
        "tle_line2": "2 34482  74.0368 217.4583 0044804 276.8292  93.8857 14.69252234882340"
      },
      "geometry": {
        "type": "Point",
        "coordinates": [
          18.742335381973785,
          45.5384088351242
        ]
      }
    },
    {
      "type": "Feature",
      "properties": {
        "norad_id": 34544,
        "name": "COSMOS 2251 DEB",
        "group": "cosmos-2251-debris",
        "lat": 43.65586850942045,
        "lon": 1.451225514201708,
        "alt_km": 1045.7285669728308,
        "timestamp": "2025-12-16T19:34:24.663071+00:00",
        "meta_object_name": "COSMOS 2251 DEB",
        "meta_object_id": "1993-036UE",
        "meta_epoch": "2025-12-13T23:53:30.258240",
        "meta_mean_motion": 13.5466391,
        "meta_eccentricity": 0.03840916,
        "meta_inclination": 73.914,
        "meta_ra_of_asc_node": 201.9961,
        "meta_arg_of_pericenter": 230.2101,
        "meta_mean_anomaly": 200.3541,
        "meta_ephemeris_type": 0,
        "meta_classification_type": "U",
        "meta_norad_cat_id": 34544,
        "meta_element_set_no": 999,
        "meta_rev_at_epoch": 82899,
        "meta_bstar": 0.0003836434,
        "meta_mean_motion_dot": 3.97e-06,
        "meta_mean_motion_ddot": 0,
        "tle_line1": "1 34544U 93036UE  25347.99548910  .00000397  00000+0  38364-3 0  9992",
        "tle_line2": "2 34544  73.9140 201.9961 0384091 230.2101 200.3541 13.54663910828997"
      },
      "geometry": {
        "type": "Point",
        "coordinates": [
          1.451225514201708,
          43.65586850942045
        ]
      }
    },
    {
      "type": "Feature",
      "properties": {
        "norad_id": 34546,
        "name": "COSMOS 2251 DEB",
        "group": "cosmos-2251-debris",
        "lat": -20.951500098117357,
        "lon": -124.70760535469823,
        "alt_km": 731.1620890314762,
        "timestamp": "2025-12-16T19:34:24.663081+00:00",
        "meta_object_name": "COSMOS 2251 DEB",
        "meta_object_id": "1993-036UG",
        "meta_epoch": "2025-12-15T19:03:23.613120",
        "meta_mean_motion": 14.45426324,
        "meta_eccentricity": 0.00219695,
        "meta_inclination": 74.0311,
        "meta_ra_of_asc_node": 243.4909,
        "meta_arg_of_pericenter": 316.9861,
        "meta_mean_anomaly": 107.7206,
        "meta_ephemeris_type": 0,
        "meta_classification_type": "U",
        "meta_norad_cat_id": 34546,
        "meta_element_set_no": 999,
        "meta_rev_at_epoch": 88070,
        "meta_bstar": 0.00046579609,
        "meta_mean_motion_dot": 1.618e-05,
        "meta_mean_motion_ddot": 0,
        "tle_line1": "1 34546U 93036UG  25349.79402330  .00001618  00000+0  46580-3 0  9995",
        "tle_line2": "2 34546  74.0311 243.4909 0021969 316.9861 107.7206 14.45426324880703"
      },
      "geometry": {
        "type": "Point",
        "coordinates": [
          -124.70760535469823,
          -20.951500098117357
        ]
      }
    },
    {
      "type": "Feature",
      "properties": {
        "norad_id": 34547,
        "name": "COSMOS 2251 DEB",
        "group": "cosmos-2251-debris",
        "lat": -21.513093493173866,
        "lon": -80.7282883970678,
        "alt_km": 647.9134457695209,
        "timestamp": "2025-12-16T19:34:24.663092+00:00",
        "meta_object_name": "COSMOS 2251 DEB",
        "meta_object_id": "1993-036UH",
        "meta_epoch": "2025-12-15T08:24:52.754976",
        "meta_mean_motion": 14.72411995,
        "meta_eccentricity": 0.0016993,
        "meta_inclination": 74.031,
        "meta_ra_of_asc_node": 95.6416,
        "meta_arg_of_pericenter": 175.6952,
        "meta_mean_anomaly": 184.437,
        "meta_ephemeris_type": 0,
        "meta_classification_type": "U",
        "meta_norad_cat_id": 34547,
        "meta_element_set_no": 999,
        "meta_rev_at_epoch": 88560,
        "meta_bstar": 0.0012230305,
        "meta_mean_motion_dot": 7.745e-05,
        "meta_mean_motion_ddot": 0,
        "tle_line1": "1 34547U 93036UH  25349.35061059  .00007745  00000+0  12230-2 0  9998",
        "tle_line2": "2 34547  74.0310  95.6416 0016993 175.6952 184.4370 14.72411995885601"
      },
      "geometry": {
        "type": "Point",
        "coordinates": [
          -80.7282883970678,
          -21.513093493173866
        ]
      }
    },
    {
      "type": "Feature",
      "properties": {
        "norad_id": 34553,
        "name": "COSMOS 2251 DEB",
        "group": "cosmos-2251-debris",
        "lat": -59.65405271629153,
        "lon": 33.43478006309696,
        "alt_km": 694.2092641375712,
        "timestamp": "2025-12-16T19:34:24.663102+00:00",
        "meta_object_name": "COSMOS 2251 DEB",
        "meta_object_id": "1993-036UP",
        "meta_epoch": "2025-12-15T23:16:06.191904",
        "meta_mean_motion": 14.57754691,
        "meta_eccentricity": 0.00192053,
        "meta_inclination": 74.0243,
        "meta_ra_of_asc_node": 185.7465,
        "meta_arg_of_pericenter": 262.8549,
        "meta_mean_anomaly": 222.8388,
        "meta_ephemeris_type": 0,
        "meta_classification_type": "U",
        "meta_norad_cat_id": 34553,
        "meta_element_set_no": 999,
        "meta_rev_at_epoch": 88143,
        "meta_bstar": 0.00072728183,
        "meta_mean_motion_dot": 3.304e-05,
        "meta_mean_motion_ddot": 0,
        "tle_line1": "1 34553U 93036UP  25349.96951611  .00003304  00000+0  72728-3 0  9990",
        "tle_line2": "2 34553  74.0243 185.7465 0019205 262.8549 222.8388 14.57754691881437"
      },
      "geometry": {
        "type": "Point",
        "coordinates": [
          33.43478006309696,
          -59.65405271629153
        ]
      }
    },
    {
      "type": "Feature",
      "properties": {
        "norad_id": 34554,
        "name": "COSMOS 2251 DEB",
        "group": "cosmos-2251-debris",
        "lat": 56.10912825187094,
        "lon": -43.29600030797929,
        "alt_km": 753.0109259629844,
        "timestamp": "2025-12-16T19:34:24.663112+00:00",
        "meta_object_name": "COSMOS 2251 DEB",
        "meta_object_id": "1993-036UQ",
        "meta_epoch": "2025-12-15T21:51:25.337088",
        "meta_mean_motion": 14.37945448,
        "meta_eccentricity": 0.00231562,
        "meta_inclination": 74.0392,
        "meta_ra_of_asc_node": 293.1527,
        "meta_arg_of_pericenter": 354.8861,
        "meta_mean_anomaly": 62.4447,
        "meta_ephemeris_type": 0,
        "meta_classification_type": "U",
        "meta_norad_cat_id": 34554,
        "meta_element_set_no": 999,
        "meta_rev_at_epoch": 87801,
        "meta_bstar": 0.00033315798,
        "meta_mean_motion_dot": 9.83e-06,
        "meta_mean_motion_ddot": 0,
        "tle_line1": "1 34554U 93036UQ  25349.91070992  .00000983  00000+0  33316-3 0  9990",
        "tle_line2": "2 34554  74.0392 293.1527 0023156 354.8861  62.4447 14.37945448878019"
      },
      "geometry": {
        "type": "Point",
        "coordinates": [
          -43.29600030797929,
          56.10912825187094
        ]
      }
    }
  ]
}